ONEWEB-0128             
1 47274U 20100S   24129.56919854  .00000438  00000+0  11823-2 0  9993
2 47274  87.8942 143.8965 0002155 100.1247 260.0124 13.12441473163799
ONEWEB-0129             
1 47275U 20100T   24129.54855277  .00000013  00000+0  18278-5 0  9993
2 47275  87.8934 143.8701 0003553  77.7042 282.4485 13.12444283163727
ONEWEB-0130             
1 47276U 20100U   24129.57714362  .00000311  00000+0  83014-3 0  9995
2 47276  87.8932 143.8731 0002191  93.7304 266.4075 13.12441148163695
ONEWEB-0131             
1 47277U 20100V   24129.57396688  .00000398  00000+0  10723-2 0  9994
2 47277  87.8936 143.8874 0002050  95.8950 264.2412 13.12442982163735
ONEWEB-0132             
1 47278U 20100W   24129.60253750 -.00000436  00000+0 -12476-2 0  9993
2 47278  87.8934 143.8834 0001797  95.7387 264.3947 13.12438303163635
ONEWEB-0133             
1 47279U 20100X   24129.54218239 -.00000241  00000+0 -70446-3 0  9996
2 47279  87.8930 143.8963 0002012  96.2913 263.8444 13.12445759163782
ONEWEB-0134             
1 47280U 20100Y   24129.58825644 -.00000100  00000+0 -31429-3 0  9998
2 47280  87.8928 143.8756 0002257  96.9676 263.1709 13.12441686163765
ONEWEB-0135             
1 47281U 20100Z   24129.55647526  .00000316  00000+0  84399-3 0  9998
2 47281  87.8935 143.8949 0002104  93.5170 266.6199 13.12446101163781
